GSAT0101 (PRN E11)      
1 37846U 11060A   24102.85262511 -.00000108  00000+0  00000+0 0  9993
2 37846  57.1268   3.3278 0004153  18.1009 341.9445  1.70475804 77677
GSAT0102 (PRN E12)      
1 37847U 11060B   24103.63905660 -.00000110  00000+0  00000+0 0  9993
2 37847  57.1276   3.3067 0004779 352.6498 175.8599  1.70475282 77567
GSAT0103 (PRN E19)      
1 38857U 12055A   24099.37236097  .00000059  00000+0  00000+0 0  9997
2 38857  55.3738 123.5224 0005946 272.7857  87.2168  1.70473506 71378
GSAT0104 (PRN E20)      
1 38858U 12055B   24077.63792391 -.00000001  00000+0  00000+0 0  9995
2 38858  55.3641 124.1218 0003138 264.9458  95.0863  1.70473802 71001
GSAT0201 (PRN E18)      
1 40128U 14050A   24100.63535156 -.00000067  00000+0  00000+0 0  9998
2 40128  49.7275 305.8154 1608564 148.5474 222.1558  1.85519373 63501
GSAT0202 (PRN E14)      
1 40129U 14050B   24101.97188510 -.00000069  00000+0  00000+0 0  9997
2 40129  49.7441 304.8374 1607183 149.4038 221.0381  1.85520074 65696
GSAT0203 (PRN E26)      
1 40544U 15017A   24101.45870265 -.00000105  00000+0  00000+0 0  9991
2 40544  56.9220   3.3088 0003173 298.3671  61.6313  1.70475506 55606
GSAT0204 (PRN E22)      
1 40545U 15017B   24102.88597639 -.00000108  00000+0  00000+0 0  9994
2 40545  56.9283   3.2851 0002319 284.6112  75.3936  1.70475377 18677
GSAT0205 (PRN E24)      
1 40889U 15045A   24103.24083402 -.00000006  00000+0  00000+0 0  9992
2 40889  55.2512 243.5902 0005083  44.2620 315.7298  1.70473820 53443
GSAT0206 (PRN E30)      
1 40890U 15045B   24102.87488298 -.00000006  00000+0  00000+0 0  9994
2 40890  55.2502 243.5957 0003012  46.5885 313.3858  1.70473881 53467
GSAT0209 (PRN E09)      
1 41174U 15079A   24101.87174414  .00000038  00000+0  00000+0 0  9992
2 41174  55.3935 123.1624 0005348 305.4356  54.5654  1.70474557 51188
GSAT0208 (PRN E08)      
1 41175U 15079B   24102.67804164  .00000033  00000+0  00000+0 0  9999
2 41175  55.3942 123.1381 0004737 305.0866  54.9143  1.70474448 51614
GSAT0211 (PRN E02)      
1 41549U 16030A   24101.04083283 -.00000009  00000+0  00000+0 0  9997
2 41549  55.3996 243.6501 0002761  12.1193 347.8267  1.70473827 49061
GSAT0210 (PRN E01)      
1 41550U 16030B   24103.09184996 -.00000006  00000+0  00000+0 0  9996
2 41550  55.3978 243.5948 0000870 312.5454  47.3976  1.70473872 49095
GSAT0207 (PRN E07)      
1 41859U 16069A   24103.33857981  .00000030  00000+0  00000+0 0  9994
2 41859  55.0582 123.1397 0005775 294.1112  65.8702  1.70474477 45833
GSAT0212 (PRN E03)      
1 41860U 16069B   24103.19294813  .00000030  00000+0  00000+0 0  9999
2 41860  55.0567 123.1401 0004062 312.1617  47.8464  1.70474720 46087
GSAT0213 (PRN E04)      
1 41861U 16069C   24101.80108944  .00000038  00000+0  00000+0 0  9993
2 41861  55.0578 123.1853 0005911 279.0959  80.8888  1.70473304 45932
GSAT0214 (PRN E05)      
1 41862U 16069D   24102.53356148  .00000033  00000+0  00000+0 0  9991
2 41862  55.0565 123.1586 0004873 280.8706  79.1210  1.70474785 46067
GSAT0215 (PRN E21)      
1 43055U 17079A   24103.02305323 -.00000006  00000+0  00000+0 0  9994
2 43055  55.3749 243.4183 0000326 291.7254  68.2213  1.70474553 39413
GSAT0216 (PRN E25)      
1 43056U 17079B   24102.72821724 -.00000006  00000+0  00000+0 0  9999
2 43056  55.3755 243.4264 0001901 291.5467  68.3815  1.70474694 39421
GSAT0217 (PRN E27)      
1 43057U 17079C   24102.36207617 -.00000007  00000+0  00000+0 0  9990
2 43057  55.3743 243.4353 0001775 328.4179  31.5179  1.70474580 39404
GSAT0218 (PRN E31)      
1 43058U 17079D   24103.16869663 -.00000006  00000+0  00000+0 0  9994
2 43058  55.3738 243.4106 0002305 281.5785  78.3466  1.70474608 39440
GSAT0221 (PRN E15)      
1 43564U 18060A   24101.89591520 -.00000105  00000+0  00000+0 0  9999
2 43564  57.3024   3.2803 0004169 310.2109  49.7837  1.70475330 35575
GSAT0222 (PRN E33)      
1 43565U 18060B   24102.70092607 -.00000107  00000+0  00000+0 0  9995
2 43565  57.3058   3.2604 0002244 285.3160  74.6901  1.70475065 35634
GSAT0219 (PRN E36)      
1 43566U 18060C   24102.92291560 -.00000108  00000+0  00000+0 0  9990
2 43566  57.3050   3.2563 0003691 326.0397  33.9675  1.70475365 35610
GSAT0220 (PRN E13)      
1 43567U 18060D   24101.38370121 -.00000104  00000+0  00000+0 0  9997
2 43567  57.3049   3.2975 0004088 312.0741  47.9219  1.70475151 35572
GSAT0223 (PRN E34)      
1 49809U 21116A   24103.27688345 -.00000109  00000+0  00000+0 0  9993
2 49809  57.2957   3.1409 0000489 269.5826 262.6878  1.70475313 14615
GSAT0224 (PRN E10)      
1 49810U 21116B   24101.35358459 -.00000104  00000+0  00000+0 0  9997
2 49810  57.2966   3.1915 0000687 346.8136 197.5909  1.70475204 14601
